[
    {
        "Altitude(m)": 566681.384426062,
        "Argument of Periapsis(deg)": -0.022603160782972403,
        "Eccentricity": 0.0,
        "Inclination(deg)": 97.0,
        "Latitude(deg)": -1.7325848537084299,
        "Longitude(deg)": -102.13320988891455,
        "Mean Anomaly(deg)": 358.41074326918744,
        "RAAN(deg)": 0.005947053618510769,
        "Satellite Name": "Starlink Shell 3 1636",
        "Satellite Number": 1636,
        "Semi-Major Axis(m)": 6938478.169268562,
        "Time(s)": 570
    },
    {
        "Altitude(m)": 566590.6072284094,
        "Argument of Periapsis(deg)": -0.02299970746337543,
        "Eccentricity": 0.0,
        "Inclination(deg)": 97.0,
        "Latitude(deg)": -1.108230883761313,
        "Longitude(deg)": -102.25117599436635,
        "Mean Anomaly(deg)": 359.0362194668925,
        "RAAN(deg)": 0.00605138789251973,
        "Satellite Name": "Starlink Shell 3 1636",
        "Satellite Number": 1636,
        "Semi-Major Axis(m)": 6938478.169268562,
        "Time(s)": 580
    },
    {
        "Altitude(m)": 566504.1050851519,
        "Argument of Periapsis(deg)": -0.023396254143778456,
        "Eccentricity": 0.0,
        "Inclination(deg)": 97.0,
        "Latitude(deg)": -0.483856932941824,
        "Longitude(deg)": -102.36911195982988,
        "Mean Anomaly(deg)": 359.6616956645976,
        "RAAN(deg)": 0.0061557221665286925,
        "Satellite Name": "Starlink Shell 3 1636",
        "Satellite Number": 1636,
        "Semi-Major Axis(m)": 6938478.169268562,
        "Time(s)": 590
    },
    {
        "Altitude(m)": 566421.890592404,
        "Argument of Periapsis(deg)": -0.023792800824181483,
        "Eccentricity": 0.0,
        "Inclination(deg)": 97.0,
        "Latitude(deg)": 0.14053400474764377,
        "Longitude(deg)": -102.48703584621411,
        "Mean Anomaly(deg)": 0.2871718623025875,
        "RAAN(deg)": 0.0062600564405376515,
        "Satellite Name": "Starlink Shell 3 1636",
        "Satellite Number": 1636,
        "Semi-Major Axis(m)": 6938478.169268562,
        "Time(s)": 600
    },
    {
        "Altitude(m)": 566343.9742684354,
        "Argument of Periapsis(deg)": -0.024189347504584503,
        "Eccentricity": 0.0,
        "Inclination(deg)": 97.0,
        "Latitude(deg)": 0.7649389330951268,
        "Longitude(deg)": -102.60496570381643,
        "Mean Anomaly(deg)": 0.9126480600075944,
        "RAAN(deg)": 0.006364390714546612,
        "Satellite Name": "Starlink Shell 3 1636",
        "Satellite Number": 1636,
        "Semi-Major Axis(m)": 6938478.169268562,
        "Time(s)": 610
    },
    {
        "Altitude(m)": 566270.364551693,
        "Argument of Periapsis(deg)": -0.02458589418498753,
        "Eccentricity": 0.0,
        "Inclination(deg)": 97.0,
        "Latitude(deg)": 1.3893548536096425,
        "Longitude(deg)": -102.72291908468345,
        "Mean Anomaly(deg)": 1.5381242577126522,
        "RAAN(deg)": 0.0064687249885555746,
        "Satellite Name": "Starlink Shell 3 1636",
        "Satellite Number": 1636,
        "Semi-Major Axis(m)": 6938478.169268562,
        "Time(s)": 620
    },
    {
        "Altitude(m)": 566201.0677998532,
        "Argument of Periapsis(deg)": -0.024982440865390556,
        "Eccentricity": 0.0,
        "Inclination(deg)": 97.0,
        "Latitude(deg)": 2.0137787654520958,
        "Longitude(deg)": -102.84091423595459,
        "Mean Anomaly(deg)": 2.1636004554177095,
        "RAAN(deg)": 0.006573059262564535,
        "Satellite Name": "Starlink Shell 3 1636",
        "Satellite Number": 1636,
        "Semi-Major Axis(m)": 6938478.169268562,
        "Time(s)": 630
    },
    {
        "Altitude(m)": 566136.0882899606,
        "Argument of Periapsis(deg)": -0.025378987545793576,
        "Eccentricity": 0.0,
        "Inclination(deg)": 97.0,
        "Latitude(deg)": 2.6382076653624886,
        "Longitude(deg)": -102.9589687717953,
        "Mean Anomaly(deg)": 2.789076653122768,
        "RAAN(deg)": 0.006677393536573496,
        "Satellite Name": "Starlink Shell 3 1636",
        "Satellite Number": 1636,
        "Semi-Major Axis(m)": 6938478.169268562,
        "Time(s)": 640
    },
    {
        "Altitude(m)": 566075.4282196186,
        "Argument of Periapsis(deg)": -0.025775534226196602,
        "Eccentricity": 0.0,
        "Inclination(deg)": 97.0,
        "Latitude(deg)": 3.262638547583105,
        "Longitude(deg)": -103.07710086686417,
        "Mean Anomaly(deg)": 3.4145528508278256,
        "RAAN(deg)": 0.006781727810582457,
        "Satellite Name": "Starlink Shell 3 1636",
        "Satellite Number": 1636,
        "Semi-Major Axis(m)": 6938478.169268562,
        "Time(s)": 650
    },
    {
        "Altitude(m)": 566019.0877092186,
        "Argument of Periapsis(deg)": -0.026172080906599626,
        "Eccentricity": 0.0,
        "Inclination(deg)": 97.0,
        "Latitude(deg)": 3.8870684037727683,
        "Longitude(deg)": -103.19532876892046,
        "Mean Anomaly(deg)": 4.0400290485328325,
        "RAAN(deg)": 0.006886062084591417,
        "Satellite Name": "Starlink Shell 3 1636",
        "Satellite Number": 1636,
        "Semi-Major Axis(m)": 6938478.169268562,
        "Time(s)": 660
    },
    {
        "Altitude(m)": 565967.0648052705,
        "Argument of Periapsis(deg)": -0.026568627587002652,
        "Eccentricity": 0.0,
        "Inclination(deg)": 97.0,
        "Latitude(deg)": 4.511494222910829,
        "Longitude(deg)": -103.31367031157698,
        "Mean Anomaly(deg)": 4.665505246237891,
        "RAAN(deg)": 0.006990396358600378,
        "Satellite Name": "Starlink Shell 3 1636",
        "Satellite Number": 1636,
        "Semi-Major Axis(m)": 6938478.169268562,
        "Time(s)": 670
    },
    {
        "Altitude(m)": 565919.3554847228,
        "Argument of Periapsis(deg)": -0.02696517426740568,
        "Eccentricity": 0.0,
        "Inclination(deg)": 97.0,
        "Latitude(deg)": 5.1359129911884205,
        "Longitude(deg)": -103.4321439401044,
        "Mean Anomaly(deg)": 5.290981443942948,
        "RAAN(deg)": 0.00709473063260934,
        "Satellite Name": "Starlink Shell 3 1636",
        "Satellite Number": 1636,
        "Semi-Major Axis(m)": 6938478.169268562,
        "Time(s)": 680
    },
    {
        "Altitude(m)": 565875.9536603905,
        "Argument of Periapsis(deg)": -0.0273617209478087,
        "Eccentricity": 0.0,
        "Inclination(deg)": 97.0,
        "Latitude(deg)": 5.760321691883425,
        "Longitude(deg)": -103.55076822457615,
        "Mean Anomaly(deg)": 5.916457641648005,
        "RAAN(deg)": 0.007199064906618299,
        "Satellite Name": "Starlink Shell 3 1636",
        "Satellite Number": 1636,
        "Semi-Major Axis(m)": 6938478.169268562,
        "Time(s)": 690
    },
    {
        "Altitude(m)": 565836.8511873978,
        "Argument of Periapsis(deg)": -0.027758267628211725,
        "Eccentricity": 0.0,
        "Inclination(deg)": 97.0,
        "Latitude(deg)": 6.3847173052166,
        "Longitude(deg)": -103.66956137326184,
        "Mean Anomaly(deg)": 6.541933839353064,
        "RAAN(deg)": 0.00730339918062726,
        "Satellite Name": "Starlink Shell 3 1636",
        "Satellite Number": 1636,
        "Semi-Major Axis(m)": 6938478.169268562,
        "Time(s)": 700
    },
    {
        "Altitude(m)": 565802.0378706916,
        "Argument of Periapsis(deg)": -0.028154814308614752,
        "Eccentricity": 0.0,
        "Inclination(deg)": 97.0,
        "Latitude(deg)": 7.00909680818727,
        "Longitude(deg)": -103.788542259179,
        "Mean Anomaly(deg)": 7.167410037058071,
        "RAAN(deg)": 0.0074077334546362224,
        "Satellite Name": "Starlink Shell 3 1636",
        "Satellite Number": 1636,
        "Semi-Major Axis(m)": 6938478.169268562,
        "Time(s)": 710
    },
    {
        "Altitude(m)": 565771.5014735534,
        "Argument of Periapsis(deg)": -0.02855136098901778,
        "Eccentricity": 0.0,
        "Inclination(deg)": 97.0,
        "Latitude(deg)": 7.633457174384154,
        "Longitude(deg)": -103.90772993409327,
        "Mean Anomaly(deg)": 7.792886234763127,
        "RAAN(deg)": 0.007512067728645183,
        "Satellite Name": "Starlink Shell 3 1636",
        "Satellite Number": 1636,
        "Semi-Major Axis(m)": 6938478.169268562,
        "Time(s)": 720
    },
    {
        "Altitude(m)": 565745.2277271912,
        "Argument of Periapsis(deg)": -0.028947907669420805,
        "Eccentricity": 0.0,
        "Inclination(deg)": 97.0,
        "Latitude(deg)": 8.257795373768579,
        "Longitude(deg)": -104.02714314287945,
        "Mean Anomaly(deg)": 8.418362432468184,
        "RAAN(deg)": 0.007616402002654144,
        "Satellite Name": "Starlink Shell 3 1636",
        "Satellite Number": 1636,
        "Semi-Major Axis(m)": 6938478.169268562,
        "Time(s)": 730
    },
    {
        "Altitude(m)": 565723.2003413242,
        "Argument of Periapsis(deg)": -0.029344454349823825,
        "Eccentricity": 0.0,
        "Inclination(deg)": 97.0,
        "Latitude(deg)": 8.882108372429004,
        "Longitude(deg)": -104.14680135115512,
        "Mean Anomaly(deg)": 9.043838630173243,
        "RAAN(deg)": 0.0077207362766631045,
        "Satellite Name": "Starlink Shell 3 1636",
        "Satellite Number": 1636,
        "Semi-Major Axis(m)": 6938478.169268562,
        "Time(s)": 740
    },
    {
        "Altitude(m)": 565705.4010158076,
        "Argument of Periapsis(deg)": -0.029741001030226845,
        "Eccentricity": 0.0,
        "Inclination(deg)": 97.0,
        "Latitude(deg)": 9.506393132301271,
        "Longitude(deg)": -104.26672426048196,
        "Mean Anomaly(deg)": 9.669314827878301,
        "RAAN(deg)": 0.007825070550672067,
        "Satellite Name": "Starlink Shell 3 1636",
        "Satellite Number": 1636,
        "Semi-Major Axis(m)": 6938478.169268562,
        "Time(s)": 750
    }
]